STARLINK-35420          
1 66260U 25245AC  25323.25002315 -.02040447  00000+0 -31852-1 0  9993
2 66260  53.1596  80.5349 0001030  66.8022  22.2242 15.56343311  4334
STARLINK-35536          
1 66261U 25245AD  25323.25002315 -.02044481  00000+0 -31920-1 0  9992
2 66261  53.1598  80.5270 0001071  69.0055  23.8545 15.56345237  4338
STARLINK-35487          
1 66262U 25245AE  25323.25002315 -.02043788  00000+0 -31909-1 0  9999
2 66262  53.1598  80.5228 0001073  69.5527  25.2249 15.56344418  4284
STARLINK-35801          
1 66265U 25247A   25323.25002315 -.00085853  00000+0 -15515-2 0  9997
2 66265  53.1594 348.4762 0001217  82.1011  68.5147 15.49328774  3848
STARLINK-35056          
1 66266U 25247B   25323.25002315 -.00063072  00000+0 -11347-2 0  9996
2 66266  53.1592 348.4723 0001246  70.0076  82.5212 15.49319575  4112
STARLINK-35550          
1 66267U 25247C   25323.25002315 -.02039468  00000+0 -29205-1 0  9992
2 66267  53.1592 347.4113 0001173  86.8028 220.7848 15.59179662  3781
STARLINK-35069          
1 66268U 25247D   25323.25002315 -.00062264  00000+0 -11200-2 0  9998
2 66268  53.1594 348.4599 0001219  72.1201  86.1610 15.49318936  4066
STARLINK-34910          
1 66269U 25247E   25323.25002315 -.02040865  00000+0 -29225-1 0  9999
2 66269  53.1595 347.4152 0001256  92.0354 213.6343 15.59181995  4113
STARLINK-35757          
1 66270U 25247F   25323.25002315  .00089425  00000+0  16006-2 0  9996
2 66270  53.1594 348.4566 0001133  72.0382  88.1660 15.49255239  4161
STARLINK-35745          
1 66271U 25247G   25323.25002315 -.00058794  00000+0 -10567-2 0  9990
2 66271  53.1595 348.4524 0001190  70.6091  91.5030 15.49317439  4161
STARLINK-35741          
1 66272U 25247H   25323.25002315 -.00088408  00000+0 -15983-2 0  9993
2 66272  53.1594 348.4478 0001181  78.2078  85.8244 15.49331102  4164
STARLINK-35730          
1 66273U 25247J   25323.25002315 -.00056138  00000+0 -10083-2 0  9995
2 66273  53.1595 348.4439 0001237  70.5207  95.4239 15.49316509  4169
