CCSDS_OMM_VERS = 2.0
CREATION_DATE  = 
ORIGINATOR     = 

OBJECT_NAME    = STARLINK-35420
OBJECT_ID      = 2025-245AC
CENTER_NAME    = EARTH
REF_FRAME      = TEME
TIME_SYSTEM    = UTC
MEAN_ELEMENT_THEORY = SGP/SGP4

EPOCH          = 2025-11-19T06:00:02.000160
MEAN_MOTION    = 15.56343311
ECCENTRICITY   = .000103
INCLINATION    = 53.1596
RA_OF_ASC_NODE = 80.5349
ARG_OF_PERICENTER = 66.8022
MEAN_ANOMALY   = 22.2242

EPHEMERIS_TYPE = 0
CLASSIFICATION_TYPE = U
NORAD_CAT_ID   = 66260
ELEMENT_SET_NO = 999
REV_AT_EPOCH   = 433
BSTAR          = -.31852124E-1
MEAN_MOTION_DOT = -.2040447E-1
MEAN_MOTION_DDOT = 0

CCSDS_OMM_VERS = 2.0
CREATION_DATE  = 
ORIGINATOR     = 

OBJECT_NAME    = STARLINK-35536
OBJECT_ID      = 2025-245AD
CENTER_NAME    = EARTH
REF_FRAME      = TEME
TIME_SYSTEM    = UTC
MEAN_ELEMENT_THEORY = SGP/SGP4

EPOCH          = 2025-11-19T06:00:02.000160
MEAN_MOTION    = 15.56345237
ECCENTRICITY   = .00010719
INCLINATION    = 53.1598
RA_OF_ASC_NODE = 80.5270
ARG_OF_PERICENTER = 69.0055
MEAN_ANOMALY   = 23.8545

EPHEMERIS_TYPE = 0
CLASSIFICATION_TYPE = U
NORAD_CAT_ID   = 66261
ELEMENT_SET_NO = 999
REV_AT_EPOCH   = 433
BSTAR          = -.31919873E-1
MEAN_MOTION_DOT = -.2044481E-1
MEAN_MOTION_DDOT = 0

CCSDS_OMM_VERS = 2.0
CREATION_DATE  = 
ORIGINATOR     = 

OBJECT_NAME    = STARLINK-35487
OBJECT_ID      = 2025-245AE
CENTER_NAME    = EARTH
REF_FRAME      = TEME
TIME_SYSTEM    = UTC
MEAN_ELEMENT_THEORY = SGP/SGP4

EPOCH          = 2025-11-19T06:00:02.000160
MEAN_MOTION    = 15.56344418
ECCENTRICITY   = .00010733
INCLINATION    = 53.1598
RA_OF_ASC_NODE = 80.5228
ARG_OF_PERICENTER = 69.5527
MEAN_ANOMALY   = 25.2249

EPHEMERIS_TYPE = 0
CLASSIFICATION_TYPE = U
NORAD_CAT_ID   = 66262
ELEMENT_SET_NO = 999
REV_AT_EPOCH   = 428
BSTAR          = -.31908713E-1
MEAN_MOTION_DOT = -.2043788E-1
MEAN_MOTION_DDOT = 0

CCSDS_OMM_VERS = 2.0
CREATION_DATE  = 
ORIGINATOR     = 

OBJECT_NAME    = STARLINK-35801
OBJECT_ID      = 2025-247A
CENTER_NAME    = EARTH
REF_FRAME      = TEME
TIME_SYSTEM    = UTC
MEAN_ELEMENT_THEORY = SGP/SGP4

EPOCH          = 2025-11-19T06:00:02.000160
MEAN_MOTION    = 15.49328774
ECCENTRICITY   = .00012179
INCLINATION    = 53.1594
RA_OF_ASC_NODE = 348.4762
ARG_OF_PERICENTER = 82.1011
MEAN_ANOMALY   = 68.5147

EPHEMERIS_TYPE = 0
CLASSIFICATION_TYPE = U
NORAD_CAT_ID   = 66265
ELEMENT_SET_NO = 999
REV_AT_EPOCH   = 384
BSTAR          = -.15514586E-2
MEAN_MOTION_DOT = -.85853E-3
MEAN_MOTION_DDOT = 0

CCSDS_OMM_VERS = 2.0
CREATION_DATE  = 
ORIGINATOR     = 

OBJECT_NAME    = STARLINK-35056
OBJECT_ID      = 2025-247B
CENTER_NAME    = EARTH
REF_FRAME      = TEME
TIME_SYSTEM    = UTC
MEAN_ELEMENT_THEORY = SGP/SGP4

EPOCH          = 2025-11-19T06:00:02.000160
MEAN_MOTION    = 15.49319575
ECCENTRICITY   = .00012466
INCLINATION    = 53.1592
RA_OF_ASC_NODE = 348.4723
ARG_OF_PERICENTER = 70.0076
MEAN_ANOMALY   = 82.5212

EPHEMERIS_TYPE = 0
CLASSIFICATION_TYPE = U
NORAD_CAT_ID   = 66266
ELEMENT_SET_NO = 999
REV_AT_EPOCH   = 411
BSTAR          = -.1134689E-2
MEAN_MOTION_DOT = -.63072E-3
MEAN_MOTION_DDOT = 0

CCSDS_OMM_VERS = 2.0
CREATION_DATE  = 
ORIGINATOR     = 

OBJECT_NAME    = STARLINK-35550
OBJECT_ID      = 2025-247C
CENTER_NAME    = EARTH
REF_FRAME      = TEME
TIME_SYSTEM    = UTC
MEAN_ELEMENT_THEORY = SGP/SGP4

EPOCH          = 2025-11-19T06:00:02.000160
MEAN_MOTION    = 15.59179662
ECCENTRICITY   = .00011736
INCLINATION    = 53.1592
RA_OF_ASC_NODE = 347.4113
ARG_OF_PERICENTER = 86.8028
MEAN_ANOMALY   = 220.7848

EPHEMERIS_TYPE = 0
CLASSIFICATION_TYPE = U
NORAD_CAT_ID   = 66267
ELEMENT_SET_NO = 999
REV_AT_EPOCH   = 378
BSTAR          = -.2920544E-1
MEAN_MOTION_DOT = -.2039468E-1
MEAN_MOTION_DDOT = 0

CCSDS_OMM_VERS = 2.0
CREATION_DATE  = 
ORIGINATOR     = 

OBJECT_NAME    = STARLINK-35069
OBJECT_ID      = 2025-247D
CENTER_NAME    = EARTH
REF_FRAME      = TEME
TIME_SYSTEM    = UTC
MEAN_ELEMENT_THEORY = SGP/SGP4

EPOCH          = 2025-11-19T06:00:02.000160
MEAN_MOTION    = 15.49318936
ECCENTRICITY   = .00012198
INCLINATION    = 53.1594
RA_OF_ASC_NODE = 348.4599
ARG_OF_PERICENTER = 72.1201
MEAN_ANOMALY   = 86.1610

EPHEMERIS_TYPE = 0
CLASSIFICATION_TYPE = U
NORAD_CAT_ID   = 66268
ELEMENT_SET_NO = 999
REV_AT_EPOCH   = 406
BSTAR          = -.11199569E-2
MEAN_MOTION_DOT = -.62264E-3
MEAN_MOTION_DDOT = 0

CCSDS_OMM_VERS = 2.0
CREATION_DATE  = 
ORIGINATOR     = 

OBJECT_NAME    = STARLINK-34910
OBJECT_ID      = 2025-247E
CENTER_NAME    = EARTH
REF_FRAME      = TEME
TIME_SYSTEM    = UTC
MEAN_ELEMENT_THEORY = SGP/SGP4

EPOCH          = 2025-11-19T06:00:02.000160
MEAN_MOTION    = 15.59181995
ECCENTRICITY   = .00012568
INCLINATION    = 53.1595
RA_OF_ASC_NODE = 347.4152
ARG_OF_PERICENTER = 92.0354
MEAN_ANOMALY   = 213.6343

EPHEMERIS_TYPE = 0
CLASSIFICATION_TYPE = U
NORAD_CAT_ID   = 66269
ELEMENT_SET_NO = 999
REV_AT_EPOCH   = 411
BSTAR          = -.29224742E-1
MEAN_MOTION_DOT = -.2040865E-1
MEAN_MOTION_DDOT = 0

CCSDS_OMM_VERS = 2.0
CREATION_DATE  = 
ORIGINATOR     = 

OBJECT_NAME    = STARLINK-35757
OBJECT_ID      = 2025-247F
CENTER_NAME    = EARTH
REF_FRAME      = TEME
TIME_SYSTEM    = UTC
MEAN_ELEMENT_THEORY = SGP/SGP4

EPOCH          = 2025-11-19T06:00:02.000160
MEAN_MOTION    = 15.49255239
ECCENTRICITY   = .00011332
INCLINATION    = 53.1594
RA_OF_ASC_NODE = 348.4566
ARG_OF_PERICENTER = 72.0382
MEAN_ANOMALY   = 88.1660

EPHEMERIS_TYPE = 0
CLASSIFICATION_TYPE = U
NORAD_CAT_ID   = 66270
ELEMENT_SET_NO = 999
REV_AT_EPOCH   = 416
BSTAR          = .16005888E-2
MEAN_MOTION_DOT = .89425E-3
MEAN_MOTION_DDOT = 0

CCSDS_OMM_VERS = 2.0
CREATION_DATE  = 
ORIGINATOR     = 

OBJECT_NAME    = STARLINK-35745
OBJECT_ID      = 2025-247G
CENTER_NAME    = EARTH
REF_FRAME      = TEME
TIME_SYSTEM    = UTC
MEAN_ELEMENT_THEORY = SGP/SGP4

EPOCH          = 2025-11-19T06:00:02.000160
MEAN_MOTION    = 15.49317439
ECCENTRICITY   = .00011903
INCLINATION    = 53.1595
RA_OF_ASC_NODE = 348.4524
ARG_OF_PERICENTER = 70.6091
MEAN_ANOMALY   = 91.5030

EPHEMERIS_TYPE = 0
CLASSIFICATION_TYPE = U
NORAD_CAT_ID   = 66271
ELEMENT_SET_NO = 999
REV_AT_EPOCH   = 416
BSTAR          = -.1056683E-2
MEAN_MOTION_DOT = -.58794E-3
MEAN_MOTION_DDOT = 0

CCSDS_OMM_VERS = 2.0
CREATION_DATE  = 
ORIGINATOR     = 

OBJECT_NAME    = STARLINK-35741
OBJECT_ID      = 2025-247H
CENTER_NAME    = EARTH
REF_FRAME      = TEME
TIME_SYSTEM    = UTC
MEAN_ELEMENT_THEORY = SGP/SGP4

EPOCH          = 2025-11-19T06:00:02.000160
MEAN_MOTION    = 15.49331102
ECCENTRICITY   = .00011812
INCLINATION    = 53.1594
RA_OF_ASC_NODE = 348.4478
ARG_OF_PERICENTER = 78.2078
MEAN_ANOMALY   = 85.8244

EPHEMERIS_TYPE = 0
CLASSIFICATION_TYPE = U
NORAD_CAT_ID   = 66272
ELEMENT_SET_NO = 999
REV_AT_EPOCH   = 416
BSTAR          = -.15982678E-2
MEAN_MOTION_DOT = -.88408E-3
MEAN_MOTION_DDOT = 0

CCSDS_OMM_VERS = 2.0
CREATION_DATE  = 
ORIGINATOR     = 

OBJECT_NAME    = STARLINK-35730
OBJECT_ID      = 2025-247J
CENTER_NAME    = EARTH
REF_FRAME      = TEME
TIME_SYSTEM    = UTC
MEAN_ELEMENT_THEORY = SGP/SGP4

EPOCH          = 2025-11-19T06:00:02.000160
MEAN_MOTION    = 15.49316509
ECCENTRICITY   = .00012378
INCLINATION    = 53.1595
RA_OF_ASC_NODE = 348.4439
ARG_OF_PERICENTER = 70.5207
MEAN_ANOMALY   = 95.4239

EPHEMERIS_TYPE = 0
CLASSIFICATION_TYPE = U
NORAD_CAT_ID   = 66273
ELEMENT_SET_NO = 999
REV_AT_EPOCH   = 416
BSTAR          = -.1008274E-2
MEAN_MOTION_DOT = -.56138E-3
MEAN_MOTION_DDOT = 0

